NORAD_CAT_ID,OBJECT_NAME,OBJECT_TYPE,EPOCH,MEAN_MOTION,ECCENTRICITY,INCLINATION,RA_OF_ASC_NODE,ARG_OF_PERICENTER,MEAN_ANOMALY,BSTAR,MEAN_MOTION_DOT,MEAN_MOTION_DDOT,TLE_LINE0,TLE_LINE1,TLE_LINE2,SEMIMAJOR_AXIS,PERIOD,APOGEE,PERIGEE,DECAYED
52536.0,STARLINK-3964,PAYLOAD,2022-06-07 22:00:00,15.61481414,0.0001102,53.2172,169.7021,63.0299,346.1261,-0.0089447,-0.00714493,0.0,0 STARLINK-3964,1 52536U 22051D   22158.91667824 -.00714493  00000-0 -89447-2 0  9996,2 52536  53.2172 169.7021 0001102  63.0299 346.1261 15.61481414  4475,6761.514,92.22,384.124,382.634,0.0
52536.0,STARLINK-3964,PAYLOAD,2022-06-08 14:00:01,15.60463628,0.0001239,53.2172,166.4604,74.156,123.4616,-0.0093466,-0.00717451,0.0,0 STARLINK-3964,1 52536U 22051D   22159.58334491 -.00717451  00000-0 -93466-2 0  9994,2 52536  53.2172 166.4604 0001239  74.1560 123.4616 15.60463628  1306,6764.454000000002,92.28,387.157,385.481,0.0
52536.0,STARLINK-3964,PAYLOAD,2022-06-08 22:00:01,15.59951083,0.0001258,53.2174,164.8387,65.2838,205.7133,-0.0094689,-0.00713016,0.0,0 STARLINK-3964,1 52536U 22051D   22159.91668981 -.00713016  00000-0 -94689-2 0  9996,2 52536  53.2174 164.8387 0001258  65.2838 205.7133 15.59951083  4629,6765.936,92.311,388.652,386.949,0.0
52536.0,STARLINK-3964,PAYLOAD,2022-06-09 14:00:01,15.58932585,0.0001079,53.2171,161.6046,69.714,346.0029,-0.0098658,-0.00714314,0.0,0 STARLINK-3964,1 52536U 22051D   22160.58334491 -.00714314  00000-0 -98658-2 0  9999,2 52536  53.2171 161.6046 0001079  69.7140 346.0029 15.58932585  1309,6768.882,92.371,391.477,390.017,0.0
52536.0,STARLINK-3964,PAYLOAD,2022-06-09 22:00:00,15.58422877,0.0001288,53.2172,159.9867,59.7512,67.4411,-0.010084,-0.00715967,0.0,0 STARLINK-3964,1 52536U 22051D   22160.91667824 -.00715967  00000-0 -10084-1 0  9996,2 52536  53.2172 159.9867 0001288  59.7512  67.4411 15.58422877  1302,6770.358,92.401,393.095,391.351,0.0
52536.0,STARLINK-3964,PAYLOAD,2022-06-10 00:00:00,15.58294936,0.0001322,53.2174,159.5829,68.1392,166.8254,-0.010091,-0.00713242,0.0,0 STARLINK-3964,1 52536U 22051D   22161.00001157 -.00713242  00000-0 -10091-1 0  9990,2 52536  53.2174 159.5829 0001322  68.1392 166.8254 15.58294936  4795,6770.729,92.409,393.489,391.698,0.0
52536.0,STARLINK-3964,PAYLOAD,2022-06-10 14:00:01,15.57404241,0.0001186,53.2172,156.7593,78.3463,189.9546,-0.010505,-0.00717485,0.0,0 STARLINK-3964,1 52536U 22051D   22161.58334491 -.00717485  00000-0 -10505-1 0  9996,2 52536  53.2172 156.7593 0001186  78.3463 189.9546 15.57404241  1305,6773.31,92.462,395.978,394.371,0.0
52536.0,STARLINK-3964,PAYLOAD,2022-06-10 22:00:00,15.56890395,0.0001149,53.2173,155.1452,68.0096,269.9294,-0.010611,-0.00711388,0.0,0 STARLINK-3964,1 52536U 22051D   22161.91667824 -.00711388  00000-0 -10611-1 0  9996,2 52536  53.2173 155.1452 0001149  68.0096 269.9294 15.56890395  4940,6774.8,92.492,397.443,395.887,0.0
52536.0,STARLINK-3964,PAYLOAD,2022-06-11 22:00:00,15.55362934,0.000136,53.2174,150.3152,62.2352,120.9334,-0.01129,-0.00714699,0.0,0 STARLINK-3964,1 52536U 22051D   22162.91667824 -.00714699  00000-0 -11290-1 0  9999,2 52536  53.2174 150.3152 0001360  62.2352 120.9334 15.55362934  5091,6779.235,92.583,402.022,400.17800000000005,0.0
52536.0,STARLINK-3964,PAYLOAD,2022-06-12 14:00:01,15.54343752,0.0001117,53.2172,147.1027,81.1045,235.8196,-0.011744,-0.00715804,0.0,0 STARLINK-3964,1 52536U 22051D   22163.58334491 -.00715804  00000-0 -11744-1 0  9997,2 52536  53.2172 147.1027 0001117  81.1045 235.8196 15.54343752  1301,6782.198,92.644,404.821,403.305,0.0
52536.0,STARLINK-3964,PAYLOAD,2022-06-12 22:00:00,15.53830793,0.0001187,53.2174,145.4964,60.2128,322.6721,-0.011876,-0.00710801,0.0,0 STARLINK-3964,1 52536U 22051D   22163.91667824 -.00710801  00000-0 -11876-1 0  9991,2 52536  53.2174 145.4964 0001187  60.2128 322.6721 15.53830793  5253,6783.691,92.674,406.361,404.75,0.0
52536.0,STARLINK-3964,PAYLOAD,2022-06-13 14:00:01,15.52813193,0.0001229,53.2171,142.2912,71.2239,81.7393,-0.012392,-0.00714304,0.0,0 STARLINK-3964,1 52536U 22051D   22164.58334491 -.00714304  00000-0 -12392-1 0  9992,2 52536  53.2171 142.2912 0001229  71.2239  81.7393 15.52813193  1304,6786.654,92.735,409.353,407.685,0.0
52536.0,STARLINK-3964,PAYLOAD,2022-06-13 22:00:00,15.52302381,0.0001348,53.2173,140.6884,67.9118,149.1727,-0.012581,-0.00712091,0.0,0 STARLINK-3964,1 52536U 22051D   22164.91667824 -.00712091  00000-0 -12581-1 0  9999,2 52536  53.2173 140.6884 0001348  67.9118 149.1727 15.52302381  1308,6788.143,92.765,410.923,409.093,0.0
52536.0,STARLINK-3964,PAYLOAD,2022-06-14 14:00:01,15.51283445,0.0001074,53.2173,137.4905,75.0411,268.4459,-0.013099,-0.00723533,0.0,0 STARLINK-3964,1 52536U 22051D   22165.58334491 -.00723533  00000-0 -13099-1 0  9992,2 52536  53.2173 137.4905 0001074  75.0411 268.4459 15.51283445  1303,6791.115,92.826,413.709,412.25,0.0
52536.0,STARLINK-3964,PAYLOAD,2022-06-14 22:00:00,15.50771679,0.0001195,53.2175,135.8921,63.2806,342.4896,-0.013278,-0.00720347,0.0,0 STARLINK-3964,1 52536U 22051D   22165.91667824 -.00720347  00000-0 -13278-1 0  9997,2 52536  53.2175 135.8921 0001195  63.2806 342.4896 15.50771679  5566,6792.609,92.857,415.285,413.662,0.0
52536.0,STARLINK-3964,PAYLOAD,2022-06-15 14:00:01,15.49888183,0.0001291999999999,53.2173,132.7034,65.4138,103.104,-8.8665e-05,-5.481e-05,0.0,0 STARLINK-3964,1 52536U 22051D   22166.58334491 -.00005481  00000-0 -88665-4 0  9992,2 52536  53.2173 132.7034 0001292  65.4138 103.1040 15.49888183  5666,6795.19,92.91,417.9330000000001,416.177,0.0
52536.0,STARLINK-3964,PAYLOAD,2022-06-15 22:00:00,15.49673934,0.0001199,53.2171,131.1108,68.1927,161.3468,0.0058843,0.00346137,0.0,0 STARLINK-3964,1 52536U 22051D   22166.91667824  .00346137  00000-0  58843-2 0  9995,2 52536  53.2171 131.1108 0001199  68.1927 161.3468 15.49673934  1304,6795.816,92.923,418.496,416.866,0.0
52536.0,STARLINK-3964,PAYLOAD,2022-06-16 02:00:01,15.49918823,0.000156,53.2168,130.3231,68.6978,11.3957,-0.00079081,-0.00045131,0.0,0 STARLINK-3964,1 52536U 22051D   22167.08334491 -.00045131  00000-0 -79081-3 0  9995,2 52536  53.2168 130.3231 0001560  68.6978  11.3957 15.49918823  1307,6795.1,92.908,418.025,415.905,0.0
52536.0,STARLINK-3964,PAYLOAD,2022-06-19 14:00:01,15.456001,0.0001325,53.2174,113.6112,65.8851,91.9386,-0.0159169999999999,-0.00720066,0.0,0 STARLINK-3964,1 52536U 22051D   22170.58334491 -.00720066  00000-0 -15917-1 0  9997,2 52536  53.2174 113.6112 0001325  65.8851  91.9386 15.45600100  1306,6807.752,93.168,430.519,428.715,0.0
52536.0,STARLINK-3964,PAYLOAD,2022-06-19 22:00:00,15.450893,0.0001406999999999,53.2177,112.0271,64.22,149.0586,-0.01616,-0.00718455,0.0,0 STARLINK-3964,1 52536U 22051D   22170.91667824 -.00718455  00000-0 -16160-1 0  9993,2 52536  53.2177 112.0271 0001407  64.2200 149.0586 15.45089300  1300,6809.253000000002,93.198,432.076,430.16,0.0
52536.0,STARLINK-3964,PAYLOAD,2022-06-20 14:00:01,15.4407116,0.0001177,53.2174,108.8625,71.9735,250.3761,-0.0168229999999999,-0.00721985,0.0,0 STARLINK-3964,1 52536U 22051D   22171.58334491 -.00721985  00000-0 -16823-1 0  9996,2 52536  53.2174 108.8625 0001177  71.9735 250.3761 15.44071160  1300,6812.246,93.26,434.912,433.309,0.0
52536.0,STARLINK-3964,PAYLOAD,2022-06-20 22:00:00,15.43561444,0.0001217,53.2176,107.2823,61.6807,314.2849,-0.017117,-0.00721966,0.0,0 STARLINK-3964,1 52536U 22051D   22171.91667824 -.00721966  00000-0 -17117-1 0  9998,2 52536  53.2176 107.2823 0001217  61.6807 314.2849 15.43561444  6496,6813.745,93.291,436.439,434.781,0.0
52536.0,STARLINK-3964,PAYLOAD,2022-06-21 14:00:01,15.42538976,0.0001261,53.2174,104.1249,64.8101,56.5512,-0.0176069999999999,-0.00717693,0.0,0 STARLINK-3964,1 52536U 22051D   22172.58334491 -.00717693  00000-0 -17607-1 0  9999,2 52536  53.2174 104.1249 0001261  64.8101  56.5512 15.42538976  1304,6816.755999999999,93.353,439.481,437.761,0.0
52536.0,STARLINK-3964,PAYLOAD,2022-06-21 22:00:00,15.42029448,0.0001382,53.2174,102.5483,65.6347,107.5043,-0.017932,-0.00718454,0.0,0 STARLINK-3964,1 52536U 22051D   22172.91667824 -.00718454  00000-0 -17932-1 0  9992,2 52536  53.2174 102.5483 0001382  65.6347 107.5043 15.42029448  1306,6818.257,93.383,441.065,439.18,0.0
52536.0,STARLINK-3964,PAYLOAD,2022-06-22 00:00:02,15.41901085,0.0001322,53.2173,102.1548,71.5165,204.5354,-0.01796,-0.00716614,0.0,0 STARLINK-3964,1 52536U 22051D   22173.00002315 -.00716614  00000-0 -17960-1 0  9998,2 52536  53.2173 102.1548 0001322  71.5165 204.5354 15.41901085  6663,6818.636,93.391,441.402,439.599,0.0
52536.0,STARLINK-3964,PAYLOAD,2022-06-22 14:00:01,15.41009444,0.0001283,53.2175,99.3978,69.8126,205.0446,-0.018548,-0.00718158,0.0,0 STARLINK-3964,1 52536U 22051D   22173.58334491 -.00718158  00000-0 -18548-1 0  9992,2 52536  53.2175  99.3978 0001283  69.8126 205.0446 15.41009444  1304,6821.266,93.445,444.006,442.256,0.0
52536.0,STARLINK-3964,PAYLOAD,2022-06-22 22:00:00,15.40500344,0.0001227,53.2175,97.8252,70.9149,253.8812,-0.018901,-0.00719397,0.0,0 STARLINK-3964,1 52536U 22051D   22173.91667824 -.00719397  00000-0 -18901-1 0  9997,2 52536  53.2175  97.8252 0001227  70.9149 253.8812 15.40500344  6800,6822.769,93.476,445.471,443.796,0.0
52536.0,STARLINK-3964,PAYLOAD,2022-06-23 14:00:01,15.39478898,0.0001212,53.2175,94.6819,59.0069,3.8315,-0.019491,-0.00717297,0.0,0 STARLINK-3964,1 52536U 22051D   22174.58334491 -.00717297  00000-0 -19491-1 0  9994,2 52536  53.2175  94.6819 0001212  59.0069   3.8315 15.39478898  1304,6825.786,93.538,448.478,446.824,0.0
52536.0,STARLINK-3964,PAYLOAD,2022-06-23 22:00:00,15.38970393,0.0001341999999999,53.2175,93.1132,58.8814,52.0573,-0.019888,-0.00719561,0.0,0 STARLINK-3964,1 52536U 22051D   22174.91667824 -.00719561  00000-0 -19888-1 0  9996,2 52536  53.2175  93.1132 0001342  58.8814  52.0573 15.38970393  6959,6827.29,93.569,450.071,448.23800000000006,0.0
